OBJECT_NAME,OBJECT_ID,EPOCH,MEAN_MOTION,ECCENTRICITY,INCLINATION,RA_OF_ASC_NODE,ARG_OF_PERICENTER,MEAN_ANOMALY,EPHEMERIS_TYPE,CLASSIFICATION_TYPE,NORAD_CAT_ID,ELEMENT_SET_NO,REV_AT_EPOCH,BSTAR,MEAN_MOTION_DOT,MEAN_MOTION_DDOT
FENGYUN 3D,2017-072A,2026-06-14T14:38:47.047200,14.19739369,.00025875,99.0118,139.9855,66.3683,293.7764,0,U,43010,999,44462,.66422418E-4,.94E-6,0
NOAA 20 (JPSS-1),2017-073A,2026-06-14T14:30:54.457344,14.19511245,.00002884,98.7772,105.0903,76.3569,283.7639,0,U,43013,999,44410,.33258633E-4,.26E-6,0
GOES 17,2018-022A,2026-06-14T12:40:50.185632,1.00270089,.00003984,0.9305,85.7546,34.0164,243.7668,0,U,43226,999,3039,0,-.176E-5,0
SENTINEL-3B,2018-039A,2026-06-14T04:10:43.814208,14.26734006,.00007536,98.6249,232.7495,83.4735,276.6531,0,U,43437,999,42369,.6031543E-4,.102E-5,0
FENGYUN 2H,2018-050A,2026-06-14T15:11:43.806624,1.00269795,.00019327,3.0234,79.1055,136.3949,354.7835,0,U,43491,999,2941,0,-.126E-5,0
METOP-C,2018-087A,2026-06-14T12:49:06.252096,14.21511440,.00016719,98.6645,225.1861,132.5377,227.5942,0,U,43689,999,39445,.63132443E-4,.95E-6,0
GEO-KOMPSAT-2A,2018-100A,2026-06-14T14:11:02.476896,1.00271762,.0001788,0.0506,129.1655,316.6005,158.1506,0,U,43823,999,2760,0,-.337E-5,0
METEOR-M2 2,2019-038A,2026-06-14T13:48:27.455328,14.24366120,.00021478,98.9136,152.8218,51.6738,308.4633,0,U,44387,999,36092,.1330814E-3,.262E-5,0
ARKTIKA-M 1,2021-016A,2026-06-09T12:22:37.726752,2.00625436,.7285674,63.2417,58.7595,269.8905,14.6803,0,U,47719,999,3863,0,-.149E-5,0
FENGYUN 3E,2021-062A,2026-06-14T14:15:57.894912,14.19903403,.00028362,98.7486,169.0311,89.2125,270.9377,0,U,49008,999,25621,-.70203926E-4,-.193E-5,0
GOES 18,2022-021A,2026-06-14T14:10:02.878176,1.00272326,.00004699,0.0052,51.4023,114.9043,172.0953,0,U,51850,999,656,0,.103E-5,0
NOAA 21 (JPSS-2),2022-150A,2026-06-14T13:36:55.480320,14.19564997,.00015047,98.7060,104.4005,159.8347,200.2889,0,U,54234,999,18617,.38704863E-4,.38E-6,0
METEOSAT-12 (MTG-I1),2022-170C,2026-06-14T14:48:59.145408,1.00272047,.00031302,0.7351,22.5241,72.0585,30.1585,0,U,54743,999,1295,0,-.2E-7,0
TIANMU-1 03,2023-039A,2026-06-14T15:46:28.875360,15.47220492,.00042706,97.5222,339.5277,105.1496,255.0226,0,U,55973,999,18044,.27288054E-3,.13797E-3,0
TIANMU-1 04,2023-039B,2026-06-14T13:59:38.188032,15.47816286,.00048571,97.5161,338.6040,102.7150,257.4643,0,U,55974,999,18044,.28650056E-3,.14796E-3,0
TIANMU-1 05,2023-039C,2026-06-14T13:45:28.384416,15.47147117,.00039082,97.5206,339.0560,120.9951,239.1683,0,U,55975,999,18041,.28973973E-3,.14618E-3,0
TIANMU-1 06,2023-039D,2026-06-14T14:04:16.199904,15.47721511,.0004311,97.5213,339.7029,117.2738,242.8951,0,U,55976,999,18044,.28851094E-3,.1485E-3,0
FENGYUN 3G,2023-055A,2026-06-14T14:18:52.480800,15.52525091,.00068989,49.9937,359.3705,285.4762,74.5443,0,U,56232,999,17960,.34721948E-3,.21327E-3,0
METEOR-M2 3,2023-091A,2026-06-14T15:20:34.738944,14.24046618,.0004217,98.6090,220.6697,161.8301,198.3030,0,U,57166,999,15415,.24275678E-4,.13E-6,0
TIANMU-1 07,2023-101A,2026-06-14T14:44:55.676256,15.29781348,.00039674,97.2594,216.3418,126.7984,233.3622,0,U,57399,999,16125,.21131949E-3,.6022E-4,0
TIANMU-1 08,2023-101B,2026-06-14T13:56:54.155040,15.29785675,.00054743,97.2584,216.0803,121.2958,238.8819,0,U,57400,999,16124,.20405098E-3,.5815E-4,0
TIANMU-1 09,2023-101C,2026-06-14T13:33:05.665824,15.29815804,.00044243,97.2542,215.4812,132.6335,227.5280,0,U,57401,999,16124,.21325096E-3,.6085E-4,0
TIANMU-1 10,2023-101D,2026-06-14T14:20:37.106880,15.29787561,.00060025,97.2621,216.5613,132.9430,227.2315,0,U,57402,999,16124,.21277E-3,.6067E-4,0
FENGYUN 3F,2023-111A,2026-06-14T13:52:53.620032,14.19938698,.00015905,98.6835,235.6356,94.9925,265.1433,0,U,57490,999,14849,.45725993E-4,.54E-6,0
ARKTIKA-M 2,2023-198A,2026-06-09T18:48:45.592992,2.00606537,.69004015,63.2205,155.1874,267.4353,18.7899,0,U,58584,999,1817,0,.212E-5,0
TIANMU-1 11,2023-205A,2026-06-14T13:31:12.313344,15.26972041,.0009283,97.3442,187.1612,25.9179,334.2523,0,U,58645,999,13712,.20038229E-3,.5238E-4,0
TIANMU-1 12,2023-205B,2026-06-14T14:22:48.514368,15.26936261,.00070466,97.3430,186.9528,12.8407,347.3011,0,U,58646,999,13711,.2147652E-3,.5611E-4,0
TIANMU-1 13,2023-205C,2026-06-14T13:34:24.955968,15.26789568,.00062211,97.3460,187.1919,351.8406,8.2731,0,U,58647,999,13710,.1999131E-3,.5193E-4,0
TIANMU-1 14,2023-205D,2026-06-14T14:47:35.839392,15.26834536,.00071654,97.3395,186.4257,355.5318,4.5856,0,U,58648,999,13711,.20528958E-3,.5343E-4,0
TIANMU-1 19,2023-208A,2026-06-14T14:35:51.032256,15.31539723,.00040039,97.4506,281.8945,340.0924,20.0160,0,U,58660,999,13693,.25393305E-3,.7657E-4,0
