FENGYUN 3D              
1 43010U 17072A   26165.61026675  .00000094  00000+0  66422-4 0  9994
2 43010  99.0118 139.9855 0002587  66.3683 293.7764 14.19739369444622
NOAA 20 (JPSS-1)        
1 43013U 17073A   26165.60479696  .00000026  00000+0  33259-4 0  9999
2 43013  98.7772 105.0903 0000288  76.3569 283.7639 14.19511245444109
GOES 17                 
1 43226U 18022A   26165.52835863 -.00000176  00000+0  00000+0 0  9993
2 43226   0.9305  85.7546 0000398  34.0164 243.7668  1.00270089 30397
SENTINEL-3B             
1 43437U 18039A   26165.17411822  .00000102  00000+0  60315-4 0  9999
2 43437  98.6249 232.7495 0000753  83.4735 276.6531 14.26734006423695
FENGYUN 2H              
1 43491U 18050A   26165.63314591 -.00000126  00000+0  00000+0 0  9995
2 43491   3.0234  79.1055 0001932 136.3949 354.7835  1.00269795 29412
METOP-C                 
1 43689U 18087A   26165.53410014  .00000095  00000+0  63132-4 0  9994
2 43689  98.6645 225.1861 0001671 132.5377 227.5942 14.21511440394457
GEO-KOMPSAT-2A          
1 43823U 18100A   26165.59100089 -.00000337  00000+0  00000+0 0  9994
2 43823   0.0506 129.1655 0001788 316.6005 158.1506  1.00271762 27604
METEOR-M2 2             
1 44387U 19038A   26165.57531777  .00000262  00000+0  13308-3 0  9996
2 44387  98.9136 152.8218 0002147  51.6738 308.4633 14.24366120360921
ARKTIKA-M 1             
1 47719U 21016A   26160.51571443 -.00000149  00000+0  00000+0 0  9996
2 47719  63.2417  58.7595 7285674 269.8905  14.6803  2.00625436 38630
FENGYUN 3E              
1 49008U 21062A   26165.59442008 -.00000193  00000+0 -70204-4 0  9995
2 49008  98.7486 169.0311 0002836  89.2125 270.9377 14.19903403256217
GOES 18                 
1 51850U 22021A   26165.59031109  .00000103  00000+0  00000+0 0  9996
2 51850   0.0052  51.4023 0000469 114.9043 172.0953  1.00272326  6561
NOAA 21 (JPSS-2)        
1 54234U 22150A   26165.56730880  .00000038  00000+0  38705-4 0  9992
2 54234  98.7060 104.4005 0001504 159.8347 200.2889 14.19564997186178
METEOSAT-12 (MTG-I1)    
1 54743U 22170C   26165.61735122 -.00000002  00000+0  00000+0 0  9993
2 54743   0.7351  22.5241 0003130  72.0585  30.1585  1.00272047 12953
TIANMU-1 03             
1 55973U 23039A   26165.65727865  .00013797  00000+0  27288-3 0  9998
2 55973  97.5222 339.5277 0004270 105.1496 255.0226 15.47220492180448
TIANMU-1 04             
1 55974U 23039B   26165.58308088  .00014796  00000+0  28650-3 0  9997
2 55974  97.5161 338.6040 0004857 102.7150 257.4643 15.47816286180441
TIANMU-1 05             
1 55975U 23039C   26165.57324519  .00014618  00000+0  28974-3 0  9996
2 55975  97.5206 339.0560 0003908 120.9951 239.1683 15.47147117180419
TIANMU-1 06             
1 55976U 23039D   26165.58629861  .00014850  00000+0  28851-3 0  9998
2 55976  97.5213 339.7029 0004311 117.2738 242.8951 15.47721511180444
FENGYUN 3G              
1 56232U 23055A   26165.59644075  .00021327  00000+0  34722-3 0  9998
2 56232  49.9937 359.3705 0006898 285.4762  74.5443 15.52525091179603
METEOR-M2 3             
1 57166U 23091A   26165.63929096  .00000013  00000+0  24276-4 0  9992
2 57166  98.6090 220.6697 0004217 161.8301 198.3030 14.24046618154151
TIANMU-1 07             
1 57399U 23101A   26165.61453329  .00006022  00000+0  21132-3 0  9994
2 57399  97.2594 216.3418 0003967 126.7984 233.3622 15.29781348161252
TIANMU-1 08             
1 57400U 23101B   26165.58118235  .00005815  00000+0  20405-3 0  9998
2 57400  97.2584 216.0803 0005474 121.2958 238.8819 15.29785675161249
TIANMU-1 09             
1 57401U 23101C   26165.56464891  .00006085  00000+0  21325-3 0  9991
2 57401  97.2542 215.4812 0004424 132.6335 227.5280 15.29815804161241
TIANMU-1 10             
1 57402U 23101D   26165.59765170  .00006067  00000+0  21277-3 0  9995
2 57402  97.2621 216.5613 0006002 132.9430 227.2315 15.29787561161248
FENGYUN 3F              
1 57490U 23111A   26165.57839838  .00000054  00000+0  45726-4 0  9990
2 57490  98.6835 235.6356 0001590  94.9925 265.1433 14.19938698148497
ARKTIKA-M 2             
1 58584U 23198A   26160.78386103  .00000212  00000+0  00000+0 0  9997
2 58584  63.2205 155.1874 6900401 267.4353  18.7899  2.00606537 18179
TIANMU-1 11             
1 58645U 23205A   26165.56333696  .00005238  00000+0  20038-3 0  9994
2 58645  97.3442 187.1612 0009283  25.9179 334.2523 15.26972041137123
TIANMU-1 12             
1 58646U 23205B   26165.59917262  .00005611  00000+0  21477-3 0  9998
2 58646  97.3430 186.9528 0007046  12.8407 347.3011 15.26936261137118
TIANMU-1 13             
1 58647U 23205C   26165.56556662  .00005193  00000+0  19991-3 0  9992
2 58647  97.3460 187.1919 0006221 351.8406   8.2731 15.26789568137105
TIANMU-1 14             
1 58648U 23205D   26165.61638703  .00005343  00000+0  20529-3 0  9992
2 58648  97.3395 186.4257 0007165 355.5318   4.5856 15.26834536137115
TIANMU-1 19             
1 58660U 23208A   26165.60822954  .00007657  00000+0  25393-3 0  9995
2 58660  97.4506 281.8945 0004003 340.0924  20.0160 15.31539723136934
